OBJECT_NAME,OBJECT_ID,EPOCH,MEAN_MOTION,ECCENTRICITY,INCLINATION,RA_OF_ASC_NODE,ARG_OF_PERICENTER,MEAN_ANOMALY,EPHEMERIS_TYPE,CLASSIFICATION_TYPE,NORAD_CAT_ID,ELEMENT_SET_NO,REV_AT_EPOCH,BSTAR,MEAN_MOTION_DOT,MEAN_MOTION_DDOT
STARLINK-37963,2026-147F,2026-07-18T01:51:14.889888,15.80826749,.00015866,97.2819,235.6392,10.6717,349.4584,0,U,69709,999,431,.88892708E-3,.173647E-2,0
STARLINK-37969,2026-147G,2026-07-18T01:50:09.863520,15.80833143,.0001965,97.2827,235.6420,350.6224,9.5007,0,U,69710,999,431,.10222029E-2,.200383E-2,0
STARLINK-37956,2026-147H,2026-07-18T01:49:04.736064,15.80825354,.00006469,97.2830,235.6430,349.3369,10.7885,0,U,69711,999,431,.83443596E-3,.162777E-2,0
STARLINK-38043,2026-147J,2026-07-18T01:48:00.035424,15.80829309,.00017991,97.2815,235.6430,3.4374,356.6906,0,U,69712,999,431,.87350316E-3,.170594E-2,0
STARLINK-38020,2026-147K,2026-07-18T01:46:54.934752,15.80819810,.00005814,97.2822,235.6445,42.8007,317.3307,0,U,69713,999,431,.78642714E-3,.153195E-2,0
STARLINK-38059,2026-147L,2026-07-18T01:45:50.021568,15.80824855,.00011641,97.2807,235.6440,69.9809,290.1584,0,U,69714,999,431,.59061359E-3,.11453E-2,0
STARLINK-38061,2026-147M,2026-07-18T01:44:45.228480,15.80836747,.00020503,97.2816,235.6479,350.2970,9.8258,0,U,69715,999,431,.10297294E-2,.20193E-2,0
STARLINK-38060,2026-147N,2026-07-18T01:43:40.129536,15.80827790,.00003974,97.2825,235.6483,33.6508,326.4785,0,U,69716,999,431,.82206409E-3,.160335E-2,0
STARLINK-38040,2026-147P,2026-07-18T01:42:35.226720,15.80816985,.00006014,97.2820,235.6488,9.7012,350.4267,0,U,69717,999,431,.71423804E-3,.138871E-2,0
STARLINK-37989,2026-147Q,2026-07-18T01:41:30.246144,15.80830515,.0000565,97.2812,235.6490,76.9809,283.1522,0,U,69718,999,431,.83075902E-3,.162084E-2,0
STARLINK-38039,2026-147R,2026-07-18T01:40:25.316544,15.80826647,.00009744,97.2813,235.6497,92.4506,267.6874,0,U,69719,999,431,.84090315E-3,.164073E-2,0
STARLINK-38003,2026-147S,2026-07-18T01:39:20.315232,15.80869880,.00006964,97.2824,235.6514,117.9626,242.1713,0,U,69720,999,431,.1043511E-2,.205011E-2,0
STARLINK-38014,2026-147T,2026-07-18T01:38:15.499680,15.80829866,.00005121,97.2816,235.6522,340.2399,19.8850,0,U,69721,999,431,.85501801E-3,.16691E-2,0
STARLINK-37915,2026-147U,2026-07-18T01:37:10.574400,15.80860144,.00012591,97.2822,235.6535,142.8676,217.2679,0,U,69722,999,431,.10133532E-2,.198851E-2,0
STARLINK-38007,2026-147V,2026-07-18T06:14:04.992000,15.80963444,.00014754,97.2821,235.8502,136.5152,223.6233,0,U,69723,999,434,.11006701E-2,.217487E-2,0
STARLINK-38008,2026-147W,2026-07-18T01:35:00.853440,15.80806654,.00026772,97.2816,235.6554,109.4720,250.6838,0,U,69724,999,431,.13909616E-2,.274756E-2,0
STARLINK-38021,2026-147X,2026-07-18T01:33:55.761408,15.80821005,.00009583,97.2818,235.6564,83.7276,276.4101,0,U,69725,999,431,.64105681E-3,.124444E-2,0
STARLINK-38015,2026-147Y,2026-07-17T01:14:28.656384,15.80693791,.00031092,97.2828,234.5863,175.2803,184.8496,0,U,69726,999,415,.13764939E-2,.270378E-2,0
STARLINK-38010,2026-147Z,2026-07-18T02:20:27.422304,15.75186906,.0002238,97.2833,235.6124,340.0825,20.0352,0,U,69727,999,431,.10830818E-2,.164555E-2,0
SXM-11,2026-148A,2026-07-18T05:10:38.483616,1.00270202,.00019734,0.1036,265.0784,183.5461,164.5351,0,U,69728,999,35,0,.2E-7,0
HAIYANG-2E,2026-149A,2026-07-17T20:13:52.870656,13.79314680,.00015852,99.3454,205.7315,89.9573,270.1760,0,U,69737,999,218,-.1919833E-4,-.64E-6,0
CZ-4B R/B,2026-149B,2026-07-17T23:45:42.111936,14.30068265,.01980095,99.3218,207.2084,322.0215,36.7139,0,U,69738,999,253,.3050023E-4,.39E-6,0
STARLINK-38033,2026-150A,2026-07-18T01:26:00.400704,15.80813896,.00021012,97.2843,37.5869,83.2873,276.8635,0,U,69739,999,377,.10245079E-2,.200668E-2,0
STARLINK-38076,2026-150B,2026-07-18T02:07:38.920224,15.75181633,.00017527,97.2837,37.5456,91.8350,268.3116,0,U,69740,999,377,.11646701E-2,.177177E-2,0
STARLINK-38074,2026-150C,2026-07-18T06:00:02.000160,15.77528257,.00012994,97.2845,37.7933,77.6622,294.6838,0,U,69741,999,378,-.13302002E-1,-.1914945E-1,0
STARLINK-38041,2026-150D,2026-07-18T06:00:02.000160,15.75249680,.0001317,97.2848,37.7717,100.2076,220.4220,0,U,69742,999,378,-.12024035E-2,-.176284E-2,0
STARLINK-38087,2026-150E,2026-07-18T06:00:02.000160,15.75249571,.00010084,97.2846,37.7894,97.8004,264.8180,0,U,69743,999,378,-.11040247E-2,-.162129E-2,0
STARLINK-38078,2026-150F,2026-07-18T02:50:10.707072,15.80832304,.0000567,97.2843,37.6598,112.2428,247.8901,0,U,69744,999,378,.10170961E-2,.199346E-2,0
STARLINK-38047,2026-150G,2026-07-18T06:00:02.000160,15.75243028,.00005905,97.2850,37.7750,112.1184,218.5142,0,U,69745,999,378,-.11308958E-2,-.165944E-2,0
STARLINK-38046,2026-150H,2026-07-18T07:19:43.745952,15.80861977,.00019777,97.2862,37.8658,81.5036,278.6456,0,U,69746,999,381,.71377088E-3,.139077E-2,0
