STARLINK-37963          
1 69709U 26147F   26199.07725567  .00173647  00000+0  88893-3 0  9993
2 69709  97.2819 235.6392 0001586  10.6717 349.4584 15.80826749  4316
STARLINK-37969          
1 69710U 26147G   26199.07650305  .00200383  00000+0  10222-2 0  9990
2 69710  97.2827 235.6420 0001965 350.6224   9.5007 15.80833143  4310
STARLINK-37956          
1 69711U 26147H   26199.07574926  .00162777  00000+0  83444-3 0  9996
2 69711  97.2830 235.6430 0000646 349.3369  10.7885 15.80825354  4319
STARLINK-38043          
1 69712U 26147J   26199.07500041  .00170594  00000+0  87350-3 0  9990
2 69712  97.2815 235.6430 0001799   3.4374 356.6906 15.80829309  4317
STARLINK-38020          
1 69713U 26147K   26199.07424693  .00153195  00000+0  78643-3 0  9992
2 69713  97.2822 235.6445 0000581  42.8007 317.3307 15.80819810  4315
STARLINK-38059          
1 69714U 26147L   26199.07349562  .00114530  00000+0  59061-3 0  9997
2 69714  97.2807 235.6440 0001164  69.9809 290.1584 15.80824855  4312
STARLINK-38061          
1 69715U 26147M   26199.07274570  .00201930  00000+0  10297-2 0  9992
2 69715  97.2816 235.6479 0002050 350.2970   9.8258 15.80836747  4311
STARLINK-38060          
1 69716U 26147N   26199.07199224  .00160335  00000+0  82206-3 0  9998
2 69716  97.2825 235.6483 0000397  33.6508 326.4785 15.80827790  4319
STARLINK-38040          
1 69717U 26147P   26199.07124105  .00138871  00000+0  71424-3 0  9995
2 69717  97.2820 235.6488 0000601   9.7012 350.4267 15.80816985  4318
STARLINK-37989          
1 69718U 26147Q   26199.07048896  .00162084  00000+0  83076-3 0  9997
2 69718  97.2812 235.6490 0000565  76.9809 283.1522 15.80830515  4313
STARLINK-38039          
1 69719U 26147R   26199.06973746  .00164073  00000+0  84090-3 0  9995
2 69719  97.2813 235.6497 0000974  92.4506 267.6874 15.80826647  4311
STARLINK-38003          
1 69720U 26147S   26199.06898513  .00205011  00000+0  10435-2 0  9994
2 69720  97.2824 235.6514 0000696 117.9626 242.1713 15.80869880  4318
STARLINK-38014          
1 69721U 26147T   26199.06823495  .00166910  00000+0  85502-3 0  9994
2 69721  97.2816 235.6522 0000512 340.2399  19.8850 15.80829866  4315
STARLINK-37915          
1 69722U 26147U   26199.06748350  .00198851  00000+0  10134-2 0  9998
2 69722  97.2822 235.6535 0001259 142.8676 217.2679 15.80860144  4317
STARLINK-38007          
1 69723U 26147V   26199.25978000  .00217487  00000+0  11007-2 0  9994
2 69723  97.2821 235.8502 0001475 136.5152 223.6233 15.80963444  4349
STARLINK-38008          
1 69724U 26147W   26199.06598210  .00274756  00000+0  13910-2 0  9992
2 69724  97.2816 235.6554 0002677 109.4720 250.6838 15.80806654  4311
STARLINK-38021          
1 69725U 26147X   26199.06522872  .00124444  00000+0  64106-3 0  9996
2 69725  97.2818 235.6564 0000958  83.7276 276.4101 15.80821005  4311
STARLINK-38015          
1 69726U 26147Y   26198.05172056  .00270378  00000+0  13765-2 0  9992
2 69726  97.2828 234.5863 0003109 175.2803 184.8496 15.80693791  4157
STARLINK-38010          
1 69727U 26147Z   26199.09753961  .00164555  00000+0  10831-2 0  9998
2 69727  97.2833 235.6124 0002238 340.0825  20.0352 15.75186906  4313
SXM-11                  
1 69728U 26148A   26199.21572319  .00000002  00000+0  00000+0 0  9990
2 69728   0.1036 265.0784 0001973 183.5461 164.5351  1.00270202   351
HAIYANG-2E              
1 69737U 26149A   26198.84297304 -.00000064  00000+0 -19198-4 0  9990
2 69737  99.3454 205.7315 0001585  89.9573 270.1760 13.79314680  2187
CZ-4B R/B               
1 69738U 26149B   26198.99007074  .00000039  00000+0  30500-4 0  9990
2 69738  99.3218 207.2084 0198009 322.0215  36.7139 14.30068265  2536
STARLINK-38033          
1 69739U 26150A   26199.05972686  .00200668  00000+0  10245-2 0  9993
2 69739  97.2843  37.5869 0002101  83.2873 276.8635 15.80813896  3775
STARLINK-38076          
1 69740U 26150B   26199.08864491  .00177177  00000+0  11647-2 0  9997
2 69740  97.2837  37.5456 0001752  91.8350 268.3116 15.75181633  3779
STARLINK-38074          
1 69741U 26150C   26199.25002315 -.01914945  00000+0 -13302-1 0  9990
2 69741  97.2845  37.7933 0001299  77.6622 294.6838 15.77528257  3784
STARLINK-38041          
1 69742U 26150D   26199.25002315 -.00176284  00000+0 -12024-2 0  9997
2 69742  97.2848  37.7717 0001317 100.2076 220.4220 15.75249680  3785
STARLINK-38087          
1 69743U 26150E   26199.25002315 -.00162129  00000+0 -11040-2 0  9998
2 69743  97.2846  37.7894 0001008  97.8004 264.8180 15.75249571  3785
STARLINK-38078          
1 69744U 26150F   26199.11817948  .00199346  00000+0  10171-2 0  9993
2 69744  97.2843  37.6598 0000567 112.2428 247.8901 15.80832304  3784
STARLINK-38047          
1 69745U 26150G   26199.25002315 -.00165944  00000+0 -11309-2 0  9996
2 69745  97.2850  37.7750 0000590 112.1184 218.5142 15.75243028  3783
STARLINK-38046          
1 69746U 26150H   26199.30536743  .00139077  00000+0  71377-3 0  9998
2 69746  97.2862  37.8658 0001977  81.5036 278.6456 15.80861977  3814
